[
 {
   "postcode": "2372",
   "state": "nsw",
   "offerState": "qld"
 },
 {
   "postcode": "2470",
   "state": "nsw",
   "offerState": "qld"
 },
 {
   "postcode": "2471",
   "state": "nsw",
   "offerState": "qld"
 },
 {
   "postcode": "2472",
   "state": "nsw",
   "offerState": "qld"
 },
 {
   "postcode": "2473",
   "state": "nsw",
   "offerState": "qld"
 },
 {
   "postcode": "2474",
   "state": "nsw",
   "offerState": "qld"
 },
 {
   "postcode": "2477",
   "state": "nsw",
   "offerState": "qld"
 },
 {
   "postcode": "2478",
   "state": "nsw",
   "offerState": "qld"
 },
 {
   "postcode": "2479",
   "state": "nsw",
   "offerState": "qld"
 },
 {
   "postcode": "2480",
   "state": "nsw",
   "offerState": "qld"
 },
 {
   "postcode": "2481",
   "state": "nsw",
   "offerState": "qld"
 },
 {
   "postcode": "2463",
   "state": "nsw",
   "offerState": "qld"
 },
 {
   "postcode": "2464",
   "state": "nsw",
   "offerState": "qld"
 },
 {
   "postcode": "2465",
   "state": "nsw",
   "offerState": "qld"
 },
 {
   "postcode": "2466",
   "state": "nsw",
   "offerState": "qld"
 },
 {
   "postcode": "2475",
   "state": "nsw",
   "offerState": "qld"
 },
 {
   "postcode": "2476",
   "state": "nsw",
   "offerState": "qld"
 },
 {
   "postcode": "2469",
   "state": "nsw",
   "offerState": "qld"
 },
 {
   "postcode": "2482",
   "state": "nsw",
   "offerState": "qld"
 },
 {
   "postcode": "2483",
   "state": "nsw",
   "offerState": "qld"
 },
 {
   "postcode": "2484",
   "state": "nsw",
   "offerState": "qld"
 },
 {
   "postcode": "2485",
   "state": "nsw",
   "offerState": "qld"
 },
 {
   "postcode": "2486",
   "state": "nsw",
   "offerState": "qld"
 },
 {
   "postcode": "2487",
   "state": "nsw",
   "offerState": "qld"
 },
 {
   "postcode": "2488",
   "state": "nsw",
   "offerState": "qld"
 },
 {
   "postcode": "2489",
   "state": "nsw",
   "offerState": "qld"
 },
 {
   "postcode": "2490",
   "state": "nsw",
   "offerState": "qld"
 },
 {
   "postcode": "2640",
   "state": "nsw",
   "offerState": "vic"
 },
 {
   "postcode": "2640",
   "state": "nsw",
   "offerState": "vic"
 },
 {
   "postcode": "2641",
   "state": "nsw",
   "offerState": "vic"
 },
 {
   "postcode": "2642",
   "state": "nsw",
   "offerState": "vic"
 },
 {
   "postcode": "2643",
   "state": "nsw",
   "offerState": "vic"
 },
 {
   "postcode": "2644",
   "state": "nsw",
   "offerState": "vic"
 },
 {
   "postcode": "2646",
   "state": "nsw",
   "offerState": "vic"
 },
 {
   "postcode": "2653",
   "state": "nsw",
   "offerState": "vic"
 },
 {
   "postcode": "2659",
   "state": "nsw",
   "offerState": "vic"
 },
 {
   "postcode": "2660",
   "state": "nsw",
   "offerState": "vic"
 },
 {
   "postcode": "2624",
   "state": "nsw",
   "offerState": "vic"
 },
 {
   "postcode": "2708",
   "state": "nsw",
   "offerState": "vic"
 },
 {
   "postcode": "2731",
   "state": "nsw",
   "offerState": "vic"
 },
 {
   "postcode": "2647",
   "state": "nsw",
   "offerState": "vic"
 },
 {
   "postcode": "2712",
   "state": "nsw",
   "offerState": "vic"
 },
 {
   "postcode": "2710",
   "state": "nsw",
   "offerState": "vic"
 },
 {
   "postcode": "2713",
   "state": "nsw",
   "offerState": "vic"
 },
 {
   "postcode": "2714",
   "state": "nsw",
   "offerState": "vic"
 },
 {
   "postcode": "2648",
   "state": "nsw",
   "offerState": "vic"
 },
 {
   "postcode": "2640",
   "state": "nsw",
   "offerState": "vic"
 },
 {
   "postcode": "2715",
   "state": "nsw",
   "offerState": "vic"
 },
 {
   "postcode": "2717",
   "state": "nsw",
   "offerState": "vic"
 },
 {
   "postcode": "2737",
   "state": "nsw",
   "offerState": "vic"
 },
 {
   "postcode": "2738",
   "state": "nsw",
   "offerState": "vic"
 },
 {
   "postcode": "2739",
   "state": "nsw",
   "offerState": "vic"
 },
 {
   "postcode": "3292",
   "state": "vic",
   "offerState": "sa"
 }
]